{
  "type": "FeatureCollection",
  "features": [
    {
      "type": "Feature",
      "properties": {
        "norad_id": 22490,
        "name": "SCD 1",
        "group": "resource",
        "lat": 22.23919265241147,
        "lon": -1.3380071834145333,
        "alt_km": 730.7744426426498,
        "timestamp": "2025-12-18T23:35:48.703458+00:00",
        "meta_object_name": "SCD 1",
        "meta_object_id": "1993-009B",
        "meta_epoch": "2025-12-18T10:33:14.558976",
        "meta_mean_motion": 14.46002995,
        "meta_eccentricity": 0.00420424,
        "meta_inclination": 24.9686,
        "meta_ra_of_asc_node": 243.5007,
        "meta_arg_of_pericenter": 25.3935,
        "meta_mean_anomaly": 135.5853,
        "meta_ephemeris_type": 0,
        "meta_classification_type": "U",
        "meta_norad_cat_id": 22490,
        "meta_element_set_no": 999,
        "meta_rev_at_epoch": 73492,
        "meta_bstar": 7.3091886e-05,
        "meta_mean_motion_dot": 4.52e-06,
        "meta_mean_motion_ddot": 0,
        "tle_line1": "1 22490U 93009B   25352.43975184  .00000452  00000+0  73092-4 0  9991",
        "tle_line2": "2 22490  24.9686 243.5007 0042042  25.3935 135.5853 14.46002995734929"
      },
      "geometry": {
        "type": "Point",
        "coordinates": [
          -1.3380071834145333,
          22.23919265241147
        ]
      }
    },
    {
      "type": "Feature",
      "properties": {
        "norad_id": 25397,
        "name": "TECHSAT 1B (GO-32)",
        "group": "resource",
        "lat": 52.841792513147304,
        "lon": 168.39954681467876,
        "alt_km": 805.3344421304746,
        "timestamp": "2025-12-18T23:35:48.703488+00:00",
        "meta_object_name": "TECHSAT 1B (GO-32)",
        "meta_object_id": "1998-043D",
        "meta_epoch": "2025-12-18T11:12:20.257632",
        "meta_mean_motion": 14.24378705,
        "meta_eccentricity": 0.00018961,
        "meta_inclination": 98.9925,
        "meta_ra_of_asc_node": 335.8113,
        "meta_arg_of_pericenter": 48.3559,
        "meta_mean_anomaly": 311.7781,
        "meta_ephemeris_type": 0,
        "meta_classification_type": "U",
        "meta_norad_cat_id": 25397,
        "meta_element_set_no": 999,
        "meta_rev_at_epoch": 42560,
        "meta_bstar": 4.9909944e-05,
        "meta_mean_motion_dot": 6.9e-07,
        "meta_mean_motion_ddot": 0,
        "tle_line1": "1 25397U 98043D   25352.46690113  .00000069  00000+0  49910-4 0  9998",
        "tle_line2": "2 25397  98.9925 335.8113 0001896  48.3559 311.7781 14.24378705425608"
      },
      "geometry": {
        "type": "Point",
        "coordinates": [
          168.39954681467876,
          52.841792513147304
        ]
      }
    },
    {
      "type": "Feature",
      "properties": {
        "norad_id": 25504,
        "name": "SCD 2",
        "group": "resource",
        "lat": 17.389752485815578,
        "lon": -118.84129171592782,
        "alt_km": 741.2309680414937,
        "timestamp": "2025-12-18T23:35:48.703505+00:00",
        "meta_object_name": "SCD 2",
        "meta_object_id": "1998-060A",
        "meta_epoch": "2025-12-18T13:28:54.067296",
        "meta_mean_motion": 14.45426435,
        "meta_eccentricity": 0.00168912,
        "meta_inclination": 24.9943,
        "meta_ra_of_asc_node": 105.9962,
        "meta_arg_of_pericenter": 15.2834,
        "meta_mean_anomaly": 81.8932,
        "meta_ephemeris_type": 0,
        "meta_classification_type": "U",
        "meta_norad_cat_id": 25504,
        "meta_element_set_no": 999,
        "meta_rev_at_epoch": 43416,
        "meta_bstar": 5.3200301e-05,
        "meta_mean_motion_dot": 3.72e-06,
        "meta_mean_motion_ddot": 0,
        "tle_line1": "1 25504U 98060A   25352.56173689  .00000372  00000+0  53200-4 0  9996",
        "tle_line2": "2 25504  24.9943 105.9962 0016891  15.2834  81.8932 14.45426435434166"
      },
      "geometry": {
        "type": "Point",
        "coordinates": [
          -118.84129171592782,
          17.389752485815578
        ]
      }
    },
    {
      "type": "Feature",
      "properties": {
        "norad_id": 25757,
        "name": "DLR-TUBSAT",
        "group": "resource",
        "lat": -70.5512455821302,
        "lon": 132.13080744760225,
        "alt_km": 723.2628751721095,
        "timestamp": "2025-12-18T23:35:48.703518+00:00",
        "meta_object_name": "DLR-TUBSAT",
        "meta_object_id": "1999-029B",
        "meta_epoch": "2025-12-17T13:22:10.787520",
        "meta_mean_motion": 14.52359578,
        "meta_eccentricity": 0.00141996,
        "meta_inclination": 98.6566,
        "meta_ra_of_asc_node": 336.2196,
        "meta_arg_of_pericenter": 177.8976,
        "meta_mean_anomaly": 182.2281,
        "meta_ephemeris_type": 0,
        "meta_classification_type": "U",
        "meta_norad_cat_id": 25757,
        "meta_element_set_no": 999,
        "meta_rev_at_epoch": 40688,
        "meta_bstar": 3.7650132e-05,
        "meta_mean_motion_dot": 1.05e-06,
        "meta_mean_motion_ddot": 0,
        "tle_line1": "1 25757U 99029B   25351.55706930  .00000105  00000+0  37650-4 0  9996",
        "tle_line2": "2 25757  98.6566 336.2196 0014199 177.8976 182.2281 14.52359578406886"
      },
      "geometry": {
        "type": "Point",
        "coordinates": [
          132.13080744760225,
          -70.5512455821302
        ]
      }
    },
    {
      "type": "Feature",
      "properties": {
        "norad_id": 25994,
        "name": "TERRA",
        "group": "resource",
        "lat": 32.51784416522308,
        "lon": -130.43480525441413,
        "alt_km": 687.2596444417431,
        "timestamp": "2025-12-18T23:35:48.703530+00:00",
        "meta_object_name": "TERRA",
        "meta_object_id": "1999-068A",
        "meta_epoch": "2025-12-18T15:14:00.866400",
        "meta_mean_motion": 14.6090837,
        "meta_eccentricity": 0.00035644,
        "meta_inclination": 97.9741,
        "meta_ra_of_asc_node": 44.1027,
        "meta_arg_of_pericenter": 82.8541,
        "meta_mean_anomaly": 32.5329,
        "meta_ephemeris_type": 0,
        "meta_classification_type": "U",
        "meta_norad_cat_id": 25994,
        "meta_element_set_no": 999,
        "meta_rev_at_epoch": 38324,
        "meta_bstar": 8.4675939e-05,
        "meta_mean_motion_dot": 3.7e-06,
        "meta_mean_motion_ddot": 0,
        "tle_line1": "1 25994U 99068A   25352.63473225  .00000370  00000+0  84676-4 0  9994",
        "tle_line2": "2 25994  97.9741  44.1027 0003564  82.8541  32.5329 14.60908370383244"
      },
      "geometry": {
        "type": "Point",
        "coordinates": [
          -130.43480525441413,
          32.51784416522308
        ]
      }
    },
    {
      "type": "Feature",
      "properties": {
        "norad_id": 27004,
        "name": "MAROC-TUBSAT",
        "group": "resource",
        "lat": -77.32264966464274,
        "lon": -68.60600720645553,
        "alt_km": 992.5232009542042,
        "timestamp": "2025-12-18T23:35:48.703543+00:00",
        "meta_object_name": "MAROC-TUBSAT",
        "meta_object_id": "2001-056D",
        "meta_epoch": "2025-12-18T10:19:04.944576",
        "meta_mean_motion": 13.70253205,
        "meta_eccentricity": 0.00191492,
        "meta_inclination": 99.7913,
        "meta_ra_of_asc_node": 160.9746,
        "meta_arg_of_pericenter": 244.9813,
        "meta_mean_anomaly": 168.9616,
        "meta_ephemeris_type": 0,
        "meta_classification_type": "U",
        "meta_norad_cat_id": 27004,
        "meta_element_set_no": 999,
        "meta_rev_at_epoch": 20143,
        "meta_bstar": 2.5892592e-05,
        "meta_mean_motion_dot": -2.4e-07,
        "meta_mean_motion_ddot": 0,
        "tle_line1": "1 27004U 01056D   25352.42991834 -.00000024  00000+0  25893-4 0  9999",
        "tle_line2": "2 27004  99.7913 160.9746 0019149 244.9813 168.9616 13.70253205201436"
      },
      "geometry": {
        "type": "Point",
        "coordinates": [
          -68.60600720645553,
          -77.32264966464274
        ]
      }
    },
    {
      "type": "Feature",
      "properties": {
        "norad_id": 27424,
        "name": "AQUA",
        "group": "resource",
        "lat": 42.08641648685764,
        "lon": -53.70923437235196,
        "alt_km": 683.518866556451,
        "timestamp": "2025-12-18T23:35:48.703554+00:00",
        "meta_object_name": "AQUA",
        "meta_object_id": "2002-022A",
        "meta_epoch": "2025-12-18T00:44:29.182848",
        "meta_mean_motion": 14.61821302,
        "meta_eccentricity": 0.00012878,
        "meta_inclination": 98.4043,
        "meta_ra_of_asc_node": 312.9961,
        "meta_arg_of_pericenter": 113.4651,
        "meta_mean_anomaly": 320.6588,
        "meta_ephemeris_type": 0,
        "meta_classification_type": "U",
        "meta_norad_cat_id": 27424,
        "meta_element_set_no": 999,
        "meta_rev_at_epoch": 25680,
        "meta_bstar": 0.00017905095,
        "meta_mean_motion_dot": 8.45e-06,
        "meta_mean_motion_ddot": 0,
        "tle_line1": "1 27424U 02022A   25352.03089332  .00000845  00000+0  17905-3 0  9991",
        "tle_line2": "2 27424  98.4043 312.9961 0001287 113.4651 320.6588 14.61821302256800"
      },
      "geometry": {
        "type": "Point",
        "coordinates": [
          -53.70923437235196,
          42.08641648685764
        ]
      }
    }
  ]
}